STARLINK-35788          
1 66831U 25280L   25354.50002315  .00070703  00000+0  11432-2 0  9995
2 66831  69.9996 177.1398 0003129 263.0016 283.4889 15.52484873  4141
STARLINK-35768          
1 66832U 25280M   25354.50002315  .00072958  00000+0  11794-2 0  9991
2 66832  69.9999 177.1363 0003156 263.6208 284.7893 15.52481692  4141
STARLINK-35858          
1 66833U 25280N   25354.50002315  .00077632  00000+0  12542-2 0  9998
2 66833  69.9998 177.1342 0003243 260.2366 290.0908 15.52477438  4143
STARLINK-35840          
1 66834U 25280P   25354.50002315  .00083658  00000+0  13490-2 0  9997
2 66834  69.9999 177.1307 0003101 260.9511 291.2273 15.52504771  4147
STARLINK-35890          
1 66835U 25280Q   25354.50002315  .00080439  00000+0  12981-2 0  9996
2 66835  69.9999 177.1284 0003099 262.3166 291.8025 15.52495775  4144
STARLINK-35838          
1 66836U 25280R   25354.50002315  .00069764  00000+0  11281-2 0  9997
2 66836  70.0000 177.1266 0003047 263.9866 292.0816 15.52487519  4146
STARLINK-35729          
1 66837U 25280S   25354.50002315  .00075292  00000+0  12166-2 0  9994
2 66837  70.0002 177.1239 0003513 267.1868 290.8050 15.52481862  4146
STARLINK-35886          
1 66838U 25280T   25354.50002315  .00088111  00000+0  14230-2 0  9993
2 66838  69.9997 177.1178 0002785 273.1455 288.7904 15.52443576  4142
STARLINK-35717          
1 66839U 25280U   25354.50002315  .00069798  00000+0  11285-2 0  9991
2 66839  70.0001 177.1217 0003121 262.2610 297.6327 15.52489849  4144
STARLINK-35837          
1 66840U 25280V   25354.50002315  .00069294  00000+0  11205-2 0  9996
2 66840  70.0000 177.1175 0002984 264.2051 299.5259 15.52489102  4142
STARLINK-35715          
1 66841U 25280W   25354.50002315  .00069727  00000+0  11274-2 0  9994
2 66841  69.9997 177.1153 0003056 263.1434 302.5014 15.52489749  4146
STARLINK-35769          
1 66842U 25280X   25354.50002315  .00072085  00000+0  11653-2 0  9997
2 66842  69.9999 177.1128 0003034 262.8471 304.7247 15.52484947  4141
