CCSDS_OMM_VERS = 2.0
CREATION_DATE  = 
ORIGINATOR     = 

OBJECT_NAME    = STARLINK-35788
OBJECT_ID      = 2025-280L
CENTER_NAME    = EARTH
REF_FRAME      = TEME
TIME_SYSTEM    = UTC
MEAN_ELEMENT_THEORY = SGP/SGP4

EPOCH          = 2025-12-20T12:00:02.000160
MEAN_MOTION    = 15.52484873
ECCENTRICITY   = .0003129
INCLINATION    = 69.9996
RA_OF_ASC_NODE = 177.1398
ARG_OF_PERICENTER = 263.0016
MEAN_ANOMALY   = 283.4889

EPHEMERIS_TYPE = 0
CLASSIFICATION_TYPE = U
NORAD_CAT_ID   = 66831
ELEMENT_SET_NO = 999
REV_AT_EPOCH   = 414
BSTAR          = .11432E-2
MEAN_MOTION_DOT = .70703E-3
MEAN_MOTION_DDOT = 0

CCSDS_OMM_VERS = 2.0
CREATION_DATE  = 
ORIGINATOR     = 

OBJECT_NAME    = STARLINK-35768
OBJECT_ID      = 2025-280M
CENTER_NAME    = EARTH
REF_FRAME      = TEME
TIME_SYSTEM    = UTC
MEAN_ELEMENT_THEORY = SGP/SGP4

EPOCH          = 2025-12-20T12:00:02.000160
MEAN_MOTION    = 15.52481692
ECCENTRICITY   = .0003156
INCLINATION    = 69.9999
RA_OF_ASC_NODE = 177.1363
ARG_OF_PERICENTER = 263.6208
MEAN_ANOMALY   = 284.7893

EPHEMERIS_TYPE = 0
CLASSIFICATION_TYPE = U
NORAD_CAT_ID   = 66832
ELEMENT_SET_NO = 999
REV_AT_EPOCH   = 414
BSTAR          = .11794E-2
MEAN_MOTION_DOT = .72958E-3
MEAN_MOTION_DDOT = 0

CCSDS_OMM_VERS = 2.0
CREATION_DATE  = 
ORIGINATOR     = 

OBJECT_NAME    = STARLINK-35858
OBJECT_ID      = 2025-280N
CENTER_NAME    = EARTH
REF_FRAME      = TEME
TIME_SYSTEM    = UTC
MEAN_ELEMENT_THEORY = SGP/SGP4

EPOCH          = 2025-12-20T12:00:02.000160
MEAN_MOTION    = 15.52477438
ECCENTRICITY   = .0003243
INCLINATION    = 69.9998
RA_OF_ASC_NODE = 177.1342
ARG_OF_PERICENTER = 260.2366
MEAN_ANOMALY   = 290.0908

EPHEMERIS_TYPE = 0
CLASSIFICATION_TYPE = U
NORAD_CAT_ID   = 66833
ELEMENT_SET_NO = 999
REV_AT_EPOCH   = 414
BSTAR          = .12542E-2
MEAN_MOTION_DOT = .77632E-3
MEAN_MOTION_DDOT = 0

CCSDS_OMM_VERS = 2.0
CREATION_DATE  = 
ORIGINATOR     = 

OBJECT_NAME    = STARLINK-35840
OBJECT_ID      = 2025-280P
CENTER_NAME    = EARTH
REF_FRAME      = TEME
TIME_SYSTEM    = UTC
MEAN_ELEMENT_THEORY = SGP/SGP4

EPOCH          = 2025-12-20T12:00:02.000160
MEAN_MOTION    = 15.52504771
ECCENTRICITY   = .0003101
INCLINATION    = 69.9999
RA_OF_ASC_NODE = 177.1307
ARG_OF_PERICENTER = 260.9511
MEAN_ANOMALY   = 291.2273

EPHEMERIS_TYPE = 0
CLASSIFICATION_TYPE = U
NORAD_CAT_ID   = 66834
ELEMENT_SET_NO = 999
REV_AT_EPOCH   = 414
BSTAR          = .1349E-2
MEAN_MOTION_DOT = .83658E-3
MEAN_MOTION_DDOT = 0

CCSDS_OMM_VERS = 2.0
CREATION_DATE  = 
ORIGINATOR     = 

OBJECT_NAME    = STARLINK-35890
OBJECT_ID      = 2025-280Q
CENTER_NAME    = EARTH
REF_FRAME      = TEME
TIME_SYSTEM    = UTC
MEAN_ELEMENT_THEORY = SGP/SGP4

EPOCH          = 2025-12-20T12:00:02.000160
MEAN_MOTION    = 15.52495775
ECCENTRICITY   = .0003099
INCLINATION    = 69.9999
RA_OF_ASC_NODE = 177.1284
ARG_OF_PERICENTER = 262.3166
MEAN_ANOMALY   = 291.8025

EPHEMERIS_TYPE = 0
CLASSIFICATION_TYPE = U
NORAD_CAT_ID   = 66835
ELEMENT_SET_NO = 999
REV_AT_EPOCH   = 414
BSTAR          = .12981E-2
MEAN_MOTION_DOT = .80439E-3
MEAN_MOTION_DDOT = 0

CCSDS_OMM_VERS = 2.0
CREATION_DATE  = 
ORIGINATOR     = 

OBJECT_NAME    = STARLINK-35838
OBJECT_ID      = 2025-280R
CENTER_NAME    = EARTH
REF_FRAME      = TEME
TIME_SYSTEM    = UTC
MEAN_ELEMENT_THEORY = SGP/SGP4

EPOCH          = 2025-12-20T12:00:02.000160
MEAN_MOTION    = 15.52487519
ECCENTRICITY   = .0003047
INCLINATION    = 70.0000
RA_OF_ASC_NODE = 177.1266
ARG_OF_PERICENTER = 263.9866
MEAN_ANOMALY   = 292.0816

EPHEMERIS_TYPE = 0
CLASSIFICATION_TYPE = U
NORAD_CAT_ID   = 66836
ELEMENT_SET_NO = 999
REV_AT_EPOCH   = 414
BSTAR          = .11281E-2
MEAN_MOTION_DOT = .69764E-3
MEAN_MOTION_DDOT = 0

CCSDS_OMM_VERS = 2.0
CREATION_DATE  = 
ORIGINATOR     = 

OBJECT_NAME    = STARLINK-35729
OBJECT_ID      = 2025-280S
CENTER_NAME    = EARTH
REF_FRAME      = TEME
TIME_SYSTEM    = UTC
MEAN_ELEMENT_THEORY = SGP/SGP4

EPOCH          = 2025-12-20T12:00:02.000160
MEAN_MOTION    = 15.52481862
ECCENTRICITY   = .0003513
INCLINATION    = 70.0002
RA_OF_ASC_NODE = 177.1239
ARG_OF_PERICENTER = 267.1868
MEAN_ANOMALY   = 290.8050

EPHEMERIS_TYPE = 0
CLASSIFICATION_TYPE = U
NORAD_CAT_ID   = 66837
ELEMENT_SET_NO = 999
REV_AT_EPOCH   = 414
BSTAR          = .12166E-2
MEAN_MOTION_DOT = .75292E-3
MEAN_MOTION_DDOT = 0

CCSDS_OMM_VERS = 2.0
CREATION_DATE  = 
ORIGINATOR     = 

OBJECT_NAME    = STARLINK-35886
OBJECT_ID      = 2025-280T
CENTER_NAME    = EARTH
REF_FRAME      = TEME
TIME_SYSTEM    = UTC
MEAN_ELEMENT_THEORY = SGP/SGP4

EPOCH          = 2025-12-20T12:00:02.000160
MEAN_MOTION    = 15.52443576
ECCENTRICITY   = .0002785
INCLINATION    = 69.9997
RA_OF_ASC_NODE = 177.1178
ARG_OF_PERICENTER = 273.1455
MEAN_ANOMALY   = 288.7904

EPHEMERIS_TYPE = 0
CLASSIFICATION_TYPE = U
NORAD_CAT_ID   = 66838
ELEMENT_SET_NO = 999
REV_AT_EPOCH   = 414
BSTAR          = .1423E-2
MEAN_MOTION_DOT = .88111E-3
MEAN_MOTION_DDOT = 0

CCSDS_OMM_VERS = 2.0
CREATION_DATE  = 
ORIGINATOR     = 

OBJECT_NAME    = STARLINK-35717
OBJECT_ID      = 2025-280U
CENTER_NAME    = EARTH
REF_FRAME      = TEME
TIME_SYSTEM    = UTC
MEAN_ELEMENT_THEORY = SGP/SGP4

EPOCH          = 2025-12-20T12:00:02.000160
MEAN_MOTION    = 15.52489849
ECCENTRICITY   = .0003121
INCLINATION    = 70.0001
RA_OF_ASC_NODE = 177.1217
ARG_OF_PERICENTER = 262.2610
MEAN_ANOMALY   = 297.6327

EPHEMERIS_TYPE = 0
CLASSIFICATION_TYPE = U
NORAD_CAT_ID   = 66839
ELEMENT_SET_NO = 999
REV_AT_EPOCH   = 414
BSTAR          = .11285E-2
MEAN_MOTION_DOT = .69798E-3
MEAN_MOTION_DDOT = 0

CCSDS_OMM_VERS = 2.0
CREATION_DATE  = 
ORIGINATOR     = 

OBJECT_NAME    = STARLINK-35837
OBJECT_ID      = 2025-280V
CENTER_NAME    = EARTH
REF_FRAME      = TEME
TIME_SYSTEM    = UTC
MEAN_ELEMENT_THEORY = SGP/SGP4

EPOCH          = 2025-12-20T12:00:02.000160
MEAN_MOTION    = 15.52489102
ECCENTRICITY   = .0002984
INCLINATION    = 70.0000
RA_OF_ASC_NODE = 177.1175
ARG_OF_PERICENTER = 264.2051
MEAN_ANOMALY   = 299.5259

EPHEMERIS_TYPE = 0
CLASSIFICATION_TYPE = U
NORAD_CAT_ID   = 66840
ELEMENT_SET_NO = 999
REV_AT_EPOCH   = 414
BSTAR          = .11205E-2
MEAN_MOTION_DOT = .69294E-3
MEAN_MOTION_DDOT = 0

CCSDS_OMM_VERS = 2.0
CREATION_DATE  = 
ORIGINATOR     = 

OBJECT_NAME    = STARLINK-35715
OBJECT_ID      = 2025-280W
CENTER_NAME    = EARTH
REF_FRAME      = TEME
TIME_SYSTEM    = UTC
MEAN_ELEMENT_THEORY = SGP/SGP4

EPOCH          = 2025-12-20T12:00:02.000160
MEAN_MOTION    = 15.52489749
ECCENTRICITY   = .0003056
INCLINATION    = 69.9997
RA_OF_ASC_NODE = 177.1153
ARG_OF_PERICENTER = 263.1434
MEAN_ANOMALY   = 302.5014

EPHEMERIS_TYPE = 0
CLASSIFICATION_TYPE = U
NORAD_CAT_ID   = 66841
ELEMENT_SET_NO = 999
REV_AT_EPOCH   = 414
BSTAR          = .11274E-2
MEAN_MOTION_DOT = .69727E-3
MEAN_MOTION_DDOT = 0

CCSDS_OMM_VERS = 2.0
CREATION_DATE  = 
ORIGINATOR     = 

OBJECT_NAME    = STARLINK-35769
OBJECT_ID      = 2025-280X
CENTER_NAME    = EARTH
REF_FRAME      = TEME
TIME_SYSTEM    = UTC
MEAN_ELEMENT_THEORY = SGP/SGP4

EPOCH          = 2025-12-20T12:00:02.000160
MEAN_MOTION    = 15.52484947
ECCENTRICITY   = .0003034
INCLINATION    = 69.9999
RA_OF_ASC_NODE = 177.1128
ARG_OF_PERICENTER = 262.8471
MEAN_ANOMALY   = 304.7247

EPHEMERIS_TYPE = 0
CLASSIFICATION_TYPE = U
NORAD_CAT_ID   = 66842
ELEMENT_SET_NO = 999
REV_AT_EPOCH   = 414
BSTAR          = .11653E-2
MEAN_MOTION_DOT = .72085E-3
MEAN_MOTION_DDOT = 0

